GLOBALSTAR M057         
1 25943U 99058A   25057.37388071  .00000000  00000+0  84147-3 0  9996
2 25943  51.9993 302.6931 0002882 134.2586 225.8500 12.24814322153352
GLOBALSTAR M059         
1 25944U 99058B   25057.73669034 -.00000068  00000+0  23109-3 0  9994
2 25944  52.0009 145.9767 0001091 116.2138   6.2167 11.99974022560786
GLOBALSTAR M056         
1 25945U 99058C   25057.68479325 -.00000115  00000+0 -32459-3 0  9993
2 25945  51.9959 150.9114 0000371 354.3364 153.2751 12.04777053149302
GLOBALSTAR M031         
1 25946U 99058D   25057.92923275  .00000019  00000+0  11108-2 0  9997
2 25946  51.9976  49.1762 0001204 321.9402  56.1856 12.16030924151132
GLOBALSTAR M039         
1 25961U 99062A   25057.86666116 -.00000062  00000+0  23217-3 0  9994
2 25961  51.9825 244.7314 0003633 101.1985 258.9290 12.62319659166282
GLOBALSTAR M029         
1 25963U 99062C   25057.88046978 -.00000067  00000+0  24206-3 0  9990
2 25963  51.9822  33.7167 0002325 261.2385 115.1143 11.99891982155880
GLOBALSTAR M061         
1 25964U 99062D   25057.89597479 -.00000043  00000+0  60528-3 0  9990
2 25964  51.9781 120.6523 0006526 119.5644  51.5843 11.76771099108190
